NORAD_CAT_ID,OBJECT_NAME,OBJECT_TYPE,EPOCH,MEAN_MOTION,ECCENTRICITY,INCLINATION,RA_OF_ASC_NODE,ARG_OF_PERICENTER,MEAN_ANOMALY,BSTAR,MEAN_MOTION_DOT,MEAN_MOTION_DDOT,TLE_LINE0,TLE_LINE1,TLE_LINE2,SEMIMAJOR_AXIS,PERIOD,APOGEE,PERIGEE,DECAYED
51728.0,STARLINK-3448,PAYLOAD,2022-03-17 06:00:00,15.73249839,0.0001205,53.2192,22.5184,81.6985,176.2804,-0.00044702,-0.0006302,0.0,0 STARLINK-3448,1 51728U 22016Q   22076.25001157 -.00063020  00000-0 -44702-3 0  9995,2 51728  53.2192  22.5184 0001205  81.6985 176.2804 15.73249839  5019,6727.753000000002,91.53,350.42900000000014,348.807,0.0
51728.0,STARLINK-3448,PAYLOAD,2022-03-17 14:00:01,15.73185026,0.0001411,53.2193,20.867,92.7896,254.1725,-0.00027508,-0.00039022,0.0,0 STARLINK-3448,1 51728U 22016Q   22076.58334491 -.00039022  00000-0 -27508-3 0  9991,2 51728  53.2193  20.8670 0001411  92.7896 254.1725 15.73185026  3691,6727.938,91.534,350.75199999999984,348.85400000000016,0.0
51728.0,STARLINK-3448,PAYLOAD,2022-03-17 22:00:00,15.73181024,0.0001583,53.2196,19.2176,93.8542,341.9934,0.00026713,0.00037005,0.0,0 STARLINK-3448,1 51728U 22016Q   22076.91667824  .00037005  00000-0  26713-3 0  9991,2 51728  53.2196  19.2176 0001583  93.8542 341.9934 15.73181024  3698,6727.949000000001,91.534,350.879,348.749,0.0
51728.0,STARLINK-3448,PAYLOAD,2022-03-18 08:00:01,15.73188628,0.0001498,53.2191,17.1576,84.0433,192.9306,0.00053557,0.00075182,0.0,0 STARLINK-3448,1 51728U 22016Q   22077.33334491  .00075182  00000-0  53557-3 0  9993,2 51728  53.2191  17.1576 0001498  84.0433 192.9306 15.73188628  5180,6727.928000000001,91.534,350.8,348.785,0.0
51728.0,STARLINK-3448,PAYLOAD,2022-03-18 14:00:01,15.73226907,0.0001456,53.2193,15.919,94.3698,159.3101,0.00027027,0.00037524,0.0,0 STARLINK-3448,1 51728U 22016Q   22077.58334491  .00037524  00000-0  27027-3 0  9991,2 51728  53.2193  15.9190 0001456  94.3698 159.3101 15.73226907  3711,6727.818,91.532,350.663,348.704,0.0
51728.0,STARLINK-3448,PAYLOAD,2022-03-18 22:00:00,15.73285097,0.0001324,53.2192,14.2698,99.9862,242.6641,-0.00055647,-0.00078277,0.0,0 STARLINK-3448,1 51728U 22016Q   22077.91667824 -.00078277  00000-0 -55647-3 0  9998,2 51728  53.2192  14.2698 0001324  99.9862 242.6641 15.73285097  5276,6727.653,91.528,350.408,348.62699999999984,0.0
51728.0,STARLINK-3448,PAYLOAD,2022-03-19 14:00:01,15.73193556,8.950000000000001e-05,53.2179,10.9707,100.6816,59.9005,0.00041541,0.00058067,0.0,0 STARLINK-3448,1 51728U 22016Q   22078.58334491  .00058067  00000-0  41541-3 0  9994,2 51728  53.2179  10.9707 0000895 100.6816  59.9005 15.73193556  5389,6727.9140000000025,91.534,350.381,349.176,0.0
51728.0,STARLINK-3448,PAYLOAD,2022-03-19 22:00:01,15.73279628,9.25e-05,53.2178,9.3215,102.5461,147.0292,-0.00053071,-0.00074693,0.0,0 STARLINK-3448,1 51728U 22016Q   22078.91668981 -.00074693  00000-0 -53071-3 0  9991,2 51728  53.2178   9.3215 0000925 102.5461 147.0292 15.73279628  3723,6727.668000000002,91.529,350.155,348.911,0.0
51728.0,STARLINK-3448,PAYLOAD,2022-03-20 06:00:00,15.7319967,8.109999999999999e-05,53.2175,7.6737,83.0781,255.4278,0.00029137,0.00040468,0.0,0 STARLINK-3448,1 51728U 22016Q   22079.25001157  .00040468  00000-0  29137-3 0  9992,2 51728  53.2175   7.6737 0000811  83.0781 255.4278 15.73199670  5483,6727.896,91.533,350.307,349.215,0.0
51728.0,STARLINK-3448,PAYLOAD,2022-03-20 14:00:01,15.7317924,8.809999999999999e-05,53.2173,6.0222,105.0238,322.448,0.00031004,0.00043076,0.0,0 STARLINK-3448,1 51728U 22016Q   22079.58334491  .00043076  00000-0  31004-3 0  9992,2 51728  53.2173   6.0222 0000881 105.0238 322.4480 15.73179240  3683,6727.954000000002,91.534,350.412,349.227,0.0
51728.0,STARLINK-3448,PAYLOAD,2022-03-20 20:00:01,15.73213819,0.000106,53.2174,4.7852,105.4341,298.7202,0.00031848,0.00044339,0.0,0 STARLINK-3448,1 51728U 22016Q   22079.83334491  .00044339  00000-0  31848-3 0  9999,2 51728  53.2174   4.7852 0001060 105.4341 298.7202 15.73213819  5575,6727.856,91.532,350.434,349.0080000000001,0.0
51728.0,STARLINK-3448,PAYLOAD,2022-03-20 22:00:01,15.73240309,0.0001057,53.2173,4.3735,102.8132,53.6392,-1.8255e-05,-3.185e-05,0.0,0 STARLINK-3448,1 51728U 22016Q   22079.91668981 -.00003185  00000-0 -18255-4 0  9996,2 51728  53.2173   4.3735 0001057 102.8132  53.6392 15.73240309  3700,6727.78,91.531,350.356,348.934,0.0
51728.0,STARLINK-3448,PAYLOAD,2022-03-21 06:00:00,15.73212615,0.0001118,53.2172,2.7254,89.2286,156.1437,9.9637e-05,0.00013393,0.0,0 STARLINK-3448,1 51728U 22016Q   22080.25001157  .00013393  00000-0  99637-4 0  9994,2 51728  53.2172   2.7254 0001118  89.2286 156.1437 15.73212615  5646,6727.859,91.532,350.476,348.972,0.0
51728.0,STARLINK-3448,PAYLOAD,2022-03-21 14:00:01,15.731725099999998,0.0001303,53.2174,1.0737,100.9848,233.3424,8.7865e-05,0.00011714,0.0,0 STARLINK-3448,1 51728U 22016Q   22080.58334491  .00011714  00000-0  87865-4 0  9995,2 51728  53.2174   1.0737 0001303 100.9848 233.3424 15.73172510  5695,6727.974,91.535,350.715,348.962,0.0
51728.0,STARLINK-3448,PAYLOAD,2022-03-21 22:00:00,15.73181873,0.0001291,53.2176,359.4249,99.5291,323.6963,-0.00025286,-0.00035928,0.0,0 STARLINK-3448,1 51728U 22016Q   22080.91667824 -.00035928  00000-0 -25286-3 0  9994,2 51728  53.2176 359.4249 0001291  99.5291 323.6963 15.73181873  3697,6727.946999999999,91.534,350.68,348.9430000000001,0.0
51728.0,STARLINK-3448,PAYLOAD,2022-03-22 06:00:00,15.73134648,0.0001164,53.2172,357.7769,89.4706,62.6242,0.00060935,0.00085532,0.0,0 STARLINK-3448,1 51728U 22016Q   22081.25001157  .00085532  00000-0  60935-3 0  9997,2 51728  53.2172 357.7769 0001164  89.4706  62.6242 15.73134648  5802,6728.081999999999,91.537,350.73,349.163,0.0
51728.0,STARLINK-3448,PAYLOAD,2022-03-22 14:00:01,15.73159349,0.0001141,53.2171,356.1254,102.5806,138.3994,0.00055428,0.00077756,0.0,0 STARLINK-3448,1 51728U 22016Q   22081.58334491  .00077756  00000-0  55428-3 0  9993,2 51728  53.2171 356.1254 0001141 102.5806 138.3994 15.73159349  5851,6728.011,91.536,350.644,349.108,0.0
51728.0,STARLINK-3448,PAYLOAD,2022-03-22 22:00:01,15.73244184,0.0001114,53.2171,354.4768,102.1306,227.8369,3.0438e-05,3.662e-05,0.0,0 STARLINK-3448,1 51728U 22016Q   22081.91668981  .00003662  00000-0  30438-4 0  9994,2 51728  53.2171 354.4768 0001114 102.1306 227.8369 15.73244184  3707,6727.769,91.531,350.384,348.885,0.0
51728.0,STARLINK-3448,PAYLOAD,2022-03-23 08:00:01,15.73232816,8.909999999999997e-05,53.2169,352.4156,96.169,74.9482,-7.853600000000001e-05,-0.00011641,0.0,0 STARLINK-3448,1 51728U 22016Q   22082.33334491 -.00011641  00000-0 -78536-4 0  9996,2 51728  53.2169 352.4156 0000891  96.1690  74.9482 15.73232816  5979,6727.802,91.531,350.266,349.06699999999995,0.0
51728.0,STARLINK-3448,PAYLOAD,2022-03-23 14:00:01,15.73233507,9.36e-05,53.2171,351.1767,109.5163,38.3298,-4.721100000000001e-05,-7.249e-05,0.0,0 STARLINK-3448,1 51728U 22016Q   22082.58334491 -.00007249  00000-0 -47211-4 0  9998,2 51728  53.2171 351.1767 0000936 109.5163  38.3298 15.73233507  3694,6727.8,91.531,350.2940000000001,349.035,0.0
51728.0,STARLINK-3448,PAYLOAD,2022-03-23 22:00:00,15.73208615,0.0001139,53.2173,349.5281,99.8085,136.9998,0.00015546,0.00021261,0.0,0 STARLINK-3448,1 51728U 22016Q   22082.91667824  .00021261  00000-0  15546-3 0  9997,2 51728  53.2173 349.5281 0001139  99.8085 136.9998 15.73208615  3704,6727.871,91.533,350.50199999999984,348.969,0.0
51728.0,STARLINK-3448,PAYLOAD,2022-03-24 14:00:01,15.73206546,0.0001178,53.217,346.2278,106.9203,307.7976,-7.6886e-06,-1.699e-05,0.0,0 STARLINK-3448,1 51728U 22016Q   22083.58334491 -.00001699  00000-0 -76886-5 0  9993,2 51728  53.2170 346.2278 0001178 106.9203 307.7976 15.73206546  3688,6727.877,91.533,350.534,348.949,0.0
51728.0,STARLINK-3448,PAYLOAD,2022-03-24 22:00:00,15.73193534,0.0001071,53.217,344.5796,102.703,40.9505,0.00019404,0.00026691,0.0,0 STARLINK-3448,1 51728U 22016Q   22083.91667824  .00026691  00000-0  19404-3 0  9997,2 51728  53.2170 344.5796 0001071 102.7030  40.9505 15.73193534  3707,6727.9140000000025,91.534,350.499,349.05800000000005,0.0
51728.0,STARLINK-3448,PAYLOAD,2022-03-25 00:00:02,15.73193961,0.0001059,53.2169,344.1678,98.4587,157.4917,0.00027932,0.00038751,0.0,0 STARLINK-3448,1 51728U 22016Q   22084.00002315  .00038751  00000-0  27932-3 0  9991,2 51728  53.2169 344.1678 0001059  98.4587 157.4917 15.73193961  6230,6727.9119999999975,91.534,350.49,349.065,0.0
51728.0,STARLINK-3448,PAYLOAD,2022-03-25 12:00:00,15.73243471,0.0001043,53.2173,341.6919,107.6643,101.6164,-0.00060327,-0.00084592,0.0,0 STARLINK-3448,1 51728U 22016Q   22084.50001157 -.00084592  00000-0 -60327-3 0  9990,2 51728  53.2173 341.6919 0001043 107.6643 101.6164 15.73243471  6310,6727.771,91.531,350.338,348.935,0.0
51728.0,STARLINK-3448,PAYLOAD,2022-03-25 14:00:01,15.73211338,0.0001061,53.2171,341.2791,110.4355,211.0952,-0.00035708,-0.00050456,0.0,0 STARLINK-3448,1 51728U 22016Q   22084.58334491 -.00050456  00000-0 -35708-3 0  9995,2 51728  53.2171 341.2791 0001061 110.4355 211.0952 15.73211338  3690,6727.863,91.533,350.44199999999995,349.014,0.0
51728.0,STARLINK-3448,PAYLOAD,2022-03-25 22:00:01,15.73165298,9.940000000000004e-05,53.2176,339.631,101.9369,308.5832,9.9929e-05,0.00013406,0.0,0 STARLINK-3448,1 51728U 22016Q   22084.91668981  .00013406  00000-0  99929-4 0  9994,2 51728  53.2176 339.6310 0000994 101.9369 308.5832 15.73165298  3745,6727.994000000002,91.535,350.528,349.19,0.0
51728.0,STARLINK-3448,PAYLOAD,2022-03-26 06:00:00,15.73186365,9.2e-05,53.2171,337.9821,94.5455,44.7918,0.0003036,0.00042177,0.0,0 STARLINK-3448,1 51728U 22016Q   22085.25001157  .00042177  00000-0  30360-3 0  9998,2 51728  53.2171 337.9821 0000920  94.5455  44.7918 15.73186365  6431,6727.934,91.534,350.418,349.18,0.0
51728.0,STARLINK-3448,PAYLOAD,2022-03-26 14:00:01,15.73217018,0.0001025,53.2172,336.3308,109.5006,118.772,-0.00021284,-0.00030403,0.0,0 STARLINK-3448,1 51728U 22016Q   22085.58334491 -.00030403  00000-0 -21284-3 0  9990,2 51728  53.2172 336.3308 0001025 109.5006 118.7720 15.73217018  3677,6727.847,91.532,350.401,349.022,0.0
